[{"OBJECT_NAME":"GLOBALSTAR M090","OBJECT_ID":"2011-080E","EPOCH":"2026-03-09T18:02:24.533376","MEAN_MOTION":12.62271909,"ECCENTRICITY":9.451e-5,"INCLINATION":52.011,"RA_OF_ASC_NODE":271.101,"ARG_OF_PERICENTER":93.3649,"MEAN_ANOMALY":347.2221,"EPHEMERIS_TYPE":0,"CLASSIFICATION_TYPE":"U","NORAD_CAT_ID":38044,"ELEMENT_SET_NO":999,"REV_AT_EPOCH":65715,"BSTAR":0.00010518372,"MEAN_MOTION_DOT":-8.5e-7,"MEAN_MOTION_DDOT":0},{"OBJECT_NAME":"COSMOS 2198","OBJECT_ID":"1992-042B","EPOCH":"2026-03-09T17:39:23.172768","MEAN_MOTION":12.62670834,"ECCENTRICITY":0.00061823,"INCLINATION":82.5996,"RA_OF_ASC_NODE":317.8451,"ARG_OF_PERICENTER":171.702,"MEAN_ANOMALY":188.4174,"EPHEMERIS_TYPE":0,"CLASSIFICATION_TYPE":"U","NORAD_CAT_ID":22035,"ELEMENT_SET_NO":999,"REV_AT_EPOCH":55086,"BSTAR":0.00010645365,"MEAN_MOTION_DOT":3.0e-7,"MEAN_MOTION_DDOT":0}]
